[{"OBJECT_NAME":"STARLINK-2558","OBJECT_ID":"2021-036G","EPOCH":"2026-03-09T05:46:50.419776","MEAN_MOTION":15.30182377,"ECCENTRICITY":0.0001162,"INCLINATION":53.1601,"RA_OF_ASC_NODE":77.4576,"ARG_OF_PERICENTER":117.5485,"MEAN_ANOMALY":242.5634,"EPHEMERIS_TYPE":0,"CLASSIFICATION_TYPE":"U","NORAD_CAT_ID":48282,"ELEMENT_SET_NO":999,"REV_AT_EPOCH":26834,"BSTAR":-4.0137e-5,"MEAN_MOTION_DOT":-1.547e-5,"MEAN_MOTION_DDOT":0},{"OBJECT_NAME":"ICEYE-X31","OBJECT_ID":"2023-174AJ","EPOCH":"2026-03-09T12:07:29.817408","MEAN_MOTION":15.30932354,"ECCENTRICITY":0.0001505,"INCLINATION":97.3851,"RA_OF_ASC_NODE":144.4967,"ARG_OF_PERICENTER":334.3114,"MEAN_ANOMALY":25.8052,"EPHEMERIS_TYPE":0,"CLASSIFICATION_TYPE":"U","NORAD_CAT_ID":58288,"ELEMENT_SET_NO":999,"REV_AT_EPOCH":12948,"BSTAR":0.00061995,"MEAN_MOTION_DOT":0.00018478,"MEAN_MOTION_DDOT":0}]
